STARLINK-6213           
1 56891U 23083R   25358.65382753  .00000891  00000+0  80981-4 0  9994
2 56891  43.0027 129.4468 0001237 251.3378 108.7330 15.02546308140385
STARLINK-6219           
1 56892U 23083S   25358.77345894  .00000263  00000+0  34533-4 0  9998
2 56892  43.0027 128.6260 0001563 267.0819  92.9845 15.02537804140402
STARLINK-6216           
1 56893U 23083T   25358.38458849  .00001092  00000+0  95906-4 0  9993
2 56893  43.0034 130.8697 0001267 262.2671  97.8027 15.02536103140467
STARLINK-6144           
1 56894U 23083U   25358.64159328 -.00012710  00000+0 -92622-3 0  9995
2 56894  43.0032 129.3584 0000954 289.9241  70.1498 15.02587866140508
STARLINK-6208           
1 56895U 23083V   25358.77123969 -.00000427  00000+0 -16531-4 0  9990
2 56895  43.0040 128.6132 0001303 275.7771  84.2923 15.02536308140402
STARLINK-6202           
1 56896U 23083W   25358.36792843  .00000621  00000+0  61073-4 0  9994
2 56896  43.0038 130.7420 0001316 265.5334  94.5358 15.02536734140454
STARLINK-6200           
1 56897U 23083X   25358.77012690  .00000049  00000+0  18671-4 0  9995
2 56897  43.0026 128.5958 0001020 268.0095  92.0631 15.02537024140525
STARLINK-6205           
1 56898U 23083Y   25358.42774773  .00000395  00000+0  44326-4 0  9995
2 56898  43.0031 130.3332 0001253 268.8252  91.2447 15.02539407140466
STARLINK-6203           
1 56899U 23083Z   25358.09868896  .00000320  00000+0  38729-4 0  9997
2 56899  43.0016 132.1611 0001255 270.2635  89.8063 15.02528545140417
STARLINK-6207           
1 56900U 23083AA  25358.69736459  .00000538  00000+0  54928-4 0  9995
2 56900  43.0032 116.7807 0001372 273.6702  86.3983 15.02536802140503
STARLINK-6185           
1 56901U 23083AB  25358.42553812 -.00002304  00000+0 -15561-3 0  9991
2 56901  43.0035 130.3163 0001509 281.9638  78.1035 15.02525066140468
STARLINK-6195           
1 56902U 23083AC  25358.36165054 -.00000871  00000+0 -49400-4 0  9999
2 56902  43.0038 118.5599 0001297 272.3189  87.7505 15.02532948140591
STARLINK-6192           
1 56903U 23083AD  25358.42886248 -.00000123  00000+0  59498-5 0  9990
2 56903  43.0042 130.3406 0001514 268.5555  91.5114 15.02532431140464
STARLINK-6193           
1 56904U 23083AE  25358.67071325  .00001425  00000+0  12052-3 0  9998
2 56904  43.0034 116.5752 0001389 279.5169  80.5516 15.02548320140535
STARLINK-6183           
1 56905U 23083AF  25358.69070743  .00000688  00000+0  65979-4 0  9991
2 56905  43.0032 116.7306 0001370 274.1046  85.9640 15.02533005140537
STARLINK-6098           
1 56906U 23083AG  25358.62090953  .00001067  00000+0  93987-4 0  9992
2 56906  43.0024 117.0654 0000990 267.0581  93.0148 15.02543497140529
