[{"OBJECT_NAME":"STARLINK-6213","OBJECT_ID":"2023-083R","EPOCH":"2025-12-24T15:41:30.698592","MEAN_MOTION":15.02546308,"ECCENTRICITY":0.0001237,"INCLINATION":43.0027,"RA_OF_ASC_NODE":129.4468,"ARG_OF_PERICENTER":251.3378,"MEAN_ANOMALY":108.733,"EPHEMERIS_TYPE":0,"CLASSIFICATION_TYPE":"U","NORAD_CAT_ID":56891,"ELEMENT_SET_NO":999,"REV_AT_EPOCH":14038,"BSTAR":8.0981235e-5,"MEAN_MOTION_DOT":8.91e-6,"MEAN_MOTION_DDOT":0},{"OBJECT_NAME":"STARLINK-6219","OBJECT_ID":"2023-083S","EPOCH":"2025-12-24T18:33:46.852416","MEAN_MOTION":15.02537804,"ECCENTRICITY":0.00015632,"INCLINATION":43.0027,"RA_OF_ASC_NODE":128.626,"ARG_OF_PERICENTER":267.0819,"MEAN_ANOMALY":92.9845,"EPHEMERIS_TYPE":0,"CLASSIFICATION_TYPE":"U","NORAD_CAT_ID":56892,"ELEMENT_SET_NO":999,"REV_AT_EPOCH":14040,"BSTAR":3.4533133e-5,"MEAN_MOTION_DOT":2.63e-6,"MEAN_MOTION_DDOT":0},{"OBJECT_NAME":"STARLINK-6216","OBJECT_ID":"2023-083T","EPOCH":"2025-12-24T09:13:48.445536","MEAN_MOTION":15.02536103,"ECCENTRICITY":0.0001267,"INCLINATION":43.0034,"RA_OF_ASC_NODE":130.8697,"ARG_OF_PERICENTER":262.2671,"MEAN_ANOMALY":97.8027,"EPHEMERIS_TYPE":0,"CLASSIFICATION_TYPE":"U","NORAD_CAT_ID":56893,"ELEMENT_SET_NO":999,"REV_AT_EPOCH":14046,"BSTAR":9.590588e-5,"MEAN_MOTION_DOT":1.092e-5,"MEAN_MOTION_DDOT":0},{"OBJECT_NAME":"STARLINK-6144","OBJECT_ID":"2023-083U","EPOCH":"2025-12-24T15:23:53.659392","MEAN_MOTION":15.02587866,"ECCENTRICITY":9.542e-5,"INCLINATION":43.0032,"RA_OF_ASC_NODE":129.3584,"ARG_OF_PERICENTER":289.9241,"MEAN_ANOMALY":70.1498,"EPHEMERIS_TYPE":0,"CLASSIFICATION_TYPE":"U","NORAD_CAT_ID":56894,"ELEMENT_SET_NO":999,"REV_AT_EPOCH":14050,"BSTAR":-0.00092622037,"MEAN_MOTION_DOT":-0.0001271,"MEAN_MOTION_DDOT":0},{"OBJECT_NAME":"STARLINK-6208","OBJECT_ID":"2023-083V","EPOCH":"2025-12-24T18:30:35.109216","MEAN_MOTION":15.02536308,"ECCENTRICITY":0.00013032,"INCLINATION":43.004,"RA_OF_ASC_NODE":128.6132,"ARG_OF_PERICENTER":275.7771,"MEAN_ANOMALY":84.2923,"EPHEMERIS_TYPE":0,"CLASSIFICATION_TYPE":"U","NORAD_CAT_ID":56895,"ELEMENT_SET_NO":999,"REV_AT_EPOCH":14040,"BSTAR":-1.6531196e-5,"MEAN_MOTION_DOT":-4.27e-6,"MEAN_MOTION_DDOT":0},{"OBJECT_NAME":"STARLINK-6202","OBJECT_ID":"2023-083W","EPOCH":"2025-12-24T08:49:49.016352","MEAN_MOTION":15.02536734,"ECCENTRICITY":0.00013166,"INCLINATION":43.0038,"RA_OF_ASC_NODE":130.742,"ARG_OF_PERICENTER":265.5334,"MEAN_ANOMALY":94.5358,"EPHEMERIS_TYPE":0,"CLASSIFICATION_TYPE":"U","NORAD_CAT_ID":56896,"ELEMENT_SET_NO":999,"REV_AT_EPOCH":14045,"BSTAR":6.1073062e-5,"MEAN_MOTION_DOT":6.21e-6,"MEAN_MOTION_DDOT":0},{"OBJECT_NAME":"STARLINK-6200","OBJECT_ID":"2023-083X","EPOCH":"2025-12-24T18:28:58.964160","MEAN_MOTION":15.02537024,"ECCENTRICITY":0.00010205,"INCLINATION":43.0026,"RA_OF_ASC_NODE":128.5958,"ARG_OF_PERICENTER":268.0095,"MEAN_ANOMALY":92.0631,"EPHEMERIS_TYPE":0,"CLASSIFICATION_TYPE":"U","NORAD_CAT_ID":56897,"ELEMENT_SET_NO":999,"REV_AT_EPOCH":14052,"BSTAR":1.8671371e-5,"MEAN_MOTION_DOT":4.9e-7,"MEAN_MOTION_DDOT":0},{"OBJECT_NAME":"STARLINK-6205","OBJECT_ID":"2023-083Y","EPOCH":"2025-12-24T10:15:57.403872","MEAN_MOTION":15.02539407,"ECCENTRICITY":0.00012536,"INCLINATION":43.0031,"RA_OF_ASC_NODE":130.3332,"ARG_OF_PERICENTER":268.8252,"MEAN_ANOMALY":91.2447,"EPHEMERIS_TYPE":0,"CLASSIFICATION_TYPE":"U","NORAD_CAT_ID":56898,"ELEMENT_SET_NO":999,"REV_AT_EPOCH":14046,"BSTAR":4.4325517e-5,"MEAN_MOTION_DOT":3.95e-6,"MEAN_MOTION_DDOT":0},{"OBJECT_NAME":"STARLINK-6203","OBJECT_ID":"2023-083Z","EPOCH":"2025-12-24T02:22:06.726144","MEAN_MOTION":15.02528545,"ECCENTRICITY":0.00012555,"INCLINATION":43.0016,"RA_OF_ASC_NODE":132.1611,"ARG_OF_PERICENTER":270.2635,"MEAN_ANOMALY":89.8063,"EPHEMERIS_TYPE":0,"CLASSIFICATION_TYPE":"U","NORAD_CAT_ID":56899,"ELEMENT_SET_NO":999,"REV_AT_EPOCH":14041,"BSTAR":3.8729392e-5,"MEAN_MOTION_DOT":3.2e-6,"MEAN_MOTION_DDOT":0},{"OBJECT_NAME":"STARLINK-6207","OBJECT_ID":"2023-083AA","EPOCH":"2025-12-24T16:44:12.300576","MEAN_MOTION":15.02536802,"ECCENTRICITY":0.00013724,"INCLINATION":43.0032,"RA_OF_ASC_NODE":116.7807,"ARG_OF_PERICENTER":273.6702,"MEAN_ANOMALY":86.3983,"EPHEMERIS_TYPE":0,"CLASSIFICATION_TYPE":"U","NORAD_CAT_ID":56900,"ELEMENT_SET_NO":999,"REV_AT_EPOCH":14050,"BSTAR":5.4928289e-5,"MEAN_MOTION_DOT":5.38e-6,"MEAN_MOTION_DDOT":0},{"OBJECT_NAME":"STARLINK-6185","OBJECT_ID":"2023-083AB","EPOCH":"2025-12-24T10:12:46.493568","MEAN_MOTION":15.02525066,"ECCENTRICITY":0.00015093,"INCLINATION":43.0035,"RA_OF_ASC_NODE":130.3163,"ARG_OF_PERICENTER":281.9638,"MEAN_ANOMALY":78.1035,"EPHEMERIS_TYPE":0,"CLASSIFICATION_TYPE":"U","NORAD_CAT_ID":56901,"ELEMENT_SET_NO":999,"REV_AT_EPOCH":14046,"BSTAR":-0.0001556121,"MEAN_MOTION_DOT":-2.304e-5,"MEAN_MOTION_DDOT":0},{"OBJECT_NAME":"STARLINK-6195","OBJECT_ID":"2023-083AC","EPOCH":"2025-12-24T08:40:46.606656","MEAN_MOTION":15.02532948,"ECCENTRICITY":0.00012976,"INCLINATION":43.0038,"RA_OF_ASC_NODE":118.5599,"ARG_OF_PERICENTER":272.3189,"MEAN_ANOMALY":87.7505,"EPHEMERIS_TYPE":0,"CLASSIFICATION_TYPE":"U","NORAD_CAT_ID":56902,"ELEMENT_SET_NO":999,"REV_AT_EPOCH":14059,"BSTAR":-4.939978e-5,"MEAN_MOTION_DOT":-8.71e-6,"MEAN_MOTION_DDOT":0},{"OBJECT_NAME":"STARLINK-6192","OBJECT_ID":"2023-083AD","EPOCH":"2025-12-24T10:17:33.718272","MEAN_MOTION":15.02532431,"ECCENTRICITY":0.00015147,"INCLINATION":43.0042,"RA_OF_ASC_NODE":130.3406,"ARG_OF_PERICENTER":268.5555,"MEAN_ANOMALY":91.5114,"EPHEMERIS_TYPE":0,"CLASSIFICATION_TYPE":"U","NORAD_CAT_ID":56903,"ELEMENT_SET_NO":999,"REV_AT_EPOCH":14046,"BSTAR":5.949754e-6,"MEAN_MOTION_DOT":-1.23e-6,"MEAN_MOTION_DDOT":0},{"OBJECT_NAME":"STARLINK-6193","OBJECT_ID":"2023-083AE","EPOCH":"2025-12-24T16:05:49.624800","MEAN_MOTION":15.0254832,"ECCENTRICITY":0.00013897,"INCLINATION":43.0034,"RA_OF_ASC_NODE":116.5752,"ARG_OF_PERICENTER":279.5169,"MEAN_ANOMALY":80.5516,"EPHEMERIS_TYPE":0,"CLASSIFICATION_TYPE":"U","NORAD_CAT_ID":56904,"ELEMENT_SET_NO":999,"REV_AT_EPOCH":14053,"BSTAR":0.00012052404,"MEAN_MOTION_DOT":1.425e-5,"MEAN_MOTION_DDOT":0},{"OBJECT_NAME":"STARLINK-6183","OBJECT_ID":"2023-083AF","EPOCH":"2025-12-24T16:34:37.121952","MEAN_MOTION":15.02533005,"ECCENTRICITY":0.00013709,"INCLINATION":43.0032,"RA_OF_ASC_NODE":116.7306,"ARG_OF_PERICENTER":274.1046,"MEAN_ANOMALY":85.964,"EPHEMERIS_TYPE":0,"CLASSIFICATION_TYPE":"U","NORAD_CAT_ID":56905,"ELEMENT_SET_NO":999,"REV_AT_EPOCH":14053,"BSTAR":6.5978629e-5,"MEAN_MOTION_DOT":6.88e-6,"MEAN_MOTION_DDOT":0},{"OBJECT_NAME":"STARLINK-6098","OBJECT_ID":"2023-083AG","EPOCH":"2025-12-24T14:54:06.583392","MEAN_MOTION":15.02543497,"ECCENTRICITY":9.902e-5,"INCLINATION":43.0024,"RA_OF_ASC_NODE":117.0654,"ARG_OF_PERICENTER":267.0581,"MEAN_ANOMALY":93.0148,"EPHEMERIS_TYPE":0,"CLASSIFICATION_TYPE":"U","NORAD_CAT_ID":56906,"ELEMENT_SET_NO":999,"REV_AT_EPOCH":14052,"BSTAR":9.3986748e-5,"MEAN_MOTION_DOT":1.067e-5,"MEAN_MOTION_DDOT":0}]
